ONEWEB-0228             
1 48780U 21045P   24171.58885154 -.00031285  00000+0 -83764-1 0  9997
2 48780  87.9035  43.9718 0001944  78.7305 281.4043 13.15267821148664
